GSAT0214 (GALILEO 18)
1 41862U 16069D   25355.37782441  .00000002  00000+0  00000+0 0  9999
2 41862  55.3850 106.0069 0001622 287.8422  72.1120  1.70474854 56616